format  = 'OEF2.0'       ! file format
rectype = 'ML'           ! record type (1L/ML)
refsys  = ECLM J2000     ! default reference system
END_OF_HEADER
101955
! Keplerian elements: a, e, i, long. node, arg. peric., mean anomaly
 KEP   1.1263870870385968E+00  2.0375131923987375E-01   6.0348909928121   2.0606667916732  66.2229256070730  1.3806760110597875E+02
 MJD     55606.105983072 TDT
 MAG  20.604  0.150
! Non-gravitational parameters: model used, number of model parameters, dimension, list of solve for parameters to be currently determined
 LSP   1  2    7    2
! Vector of dynamical parameters
! Area-to-mass ratio [m^2/t], Yarkovsky parameter [1E-10 au/day^2]
 NGR   0.00000000000000E+00 -4.60477568857430E-04
! PERIHELION   8.9688423207972423E-01
! APHELION   1.3558899419974693E+00
! ANODE  -4.4668392461633720E-03
! DNODE   1.7996656064875044E-01
! MOID   2.4871438789089320E-03
! PERIOD   4.3664643775165928E+02
! PHA T
! VINFTY     6.3617896497780
! U_PAR 0.0
! ORB_TYPE Apollo
! SNR A2   191.42
! da/dt [1E-4 au/My] -1.9222857E+01  +/-   1.0042075E-01
! RMS    3.95959E-11   2.02192E-08   2.57394E-06   3.60152E-06   5.26471E-06   2.36936E-06   2.40555E-06
 COV   1.567835164854271E-21  2.752205031474626E-19 -4.560156805467963E-17
 COV   1.425379495356246E-17  5.775981682813771E-17 -3.418052267793976E-17
 COV   7.488101011471804E-17  4.088168615832897E-16 -5.090683899430655E-14
 COV   3.598455334694042E-14  6.605409743905728E-14 -4.545477667571890E-14
 COV   6.474899233715844E-15  6.625159224556616E-12 -4.103731479165568E-12
 COV  -8.743807247276475E-12  5.761206015319044E-12 -1.891259818717620E-12
 COV   1.297096016290782E-11 -7.107706483882195E-12 -1.675213345212607E-12
 COV  -3.034088878678455E-12  2.771714777674137E-11 -1.041867319792598E-11
 COV   5.828617861685023E-12  5.613851642114062E-12 -1.620603391673049E-12
 COV   5.786663525846887E-12
 COR   1.000000000000000E+00  3.437685830257673E-01 -4.474365070097094E-01
 COR   9.995263409763443E-02  2.770775495705294E-01 -3.643326002642593E-01
 COR   7.861535475583942E-01  1.000000000000000E+00 -9.781682694310773E-01
 COR   4.941577987365353E-01  6.205275874370563E-01 -9.488218182296848E-01
 COR   1.331234299913192E-01  1.000000000000000E+00 -4.426849044635607E-01
 COR  -6.452501979571165E-01  9.446801278116582E-01 -3.054491496317996E-01
 COR   1.000000000000000E+00 -3.748600456130288E-01 -1.963150503086576E-01
 COR  -3.502096594894779E-01  1.000000000000000E+00 -8.352330701856444E-01
 COR   4.602324101676816E-01  1.000000000000000E+00 -2.843362049907719E-01
 COR   1.000000000000000E+00
